STARLINK-36805          
1 68116U 26044R   26077.83335648 -.02025094  00000+0 -91476-2 0  9992
2 68116  97.2809  38.4209 0001736  88.2665 112.1345 15.86861951  2871
STARLINK-36844          
1 68117U 26044S   26077.83335648 -.02028341  00000+0 -91096-2 0  9999
2 68117  97.2802  38.4221 0001797  93.6351 110.4739 15.86982968  2823
STARLINK-36789          
1 68118U 26044T   26077.83335648 -.02059189  00000+0 -93339-2 0  9996
2 68118  97.2803  38.4245 0001815  88.5678 120.7244 15.86844157  2829
STARLINK-36850          
1 68119U 26044U   26077.83335648 -.02059357  00000+0 -92842-2 0  9992
2 68119  97.2801  38.4260 0001827  93.5955 119.4626 15.86954140  2825
STARLINK-36868          
1 68120U 26044V   26077.83335648 -.02068546  00000+0 -93143-2 0  9999
2 68120  97.2794  38.4278 0001716  89.3165 127.8980 15.86994790  2821
STARLINK-36855          
1 68121U 26044W   26077.83335648 -.02072632  00000+0 -93021-2 0  9996
2 68121  97.2794  38.4300 0001806  92.1907 129.0085 15.87066305  2827
STARLINK-36366          
1 68122U 26044X   26077.83335648 -.02076475  00000+0 -92641-2 0  9993
2 68122  97.2791  38.4311 0001766  98.2064 126.6648 15.87193023  2874
STARLINK-36922          
1 68123U 26044Y   26077.83335648 -.02087338  00000+0 -92245-2 0  9994
2 68123  97.2791  38.4346 0001752 100.6630 131.7827 15.87401980  2875
STARLINK-36938          
1 68124U 26044Z   26077.83335648 -.02088823  00000+0 -91733-2 0  9996
2 68124  97.2790  38.4361 0001686 101.1974 134.8719 15.87531699  2870
STARLINK-36839          
1 68125U 26044AA  26077.83335648 -.02095153  00000+0 -93242-2 0  9998
2 68125  97.2793  38.4333 0001637  95.8257 133.0108 15.87274766  2829
ECHOSTAR 25             
1 68126U 26045A   26074.15172541  .00001699  00000+0  49012-3 0  9998
2 68126  26.8649  68.3559 6668368 178.8166 184.5786  3.07256928   186
ICOR SV                 
1 68127U 26046A   26072.90953491  .00482503  92133-4  10434-2 0  9997
2 68127 123.0797 224.1306 0140888 188.2572 171.6170 15.82606913   290
